country,country_code,state,state_abbr,postal_code,address
United Kingdom,GB,Wales,WLS,SY4,6293 Meadow Vale Trail
United Kingdom,GB,England,ENG,NR29,8034 Waubesa Plaza
United Kingdom,GB,England,ENG,BH21,5 Tony Crossing
United Kingdom,GB,England,ENG,NG22,66 Sunfield Circle
United Kingdom,GB,England,ENG,DL8,72 Loftsgordon Park
United Kingdom,GB,England,ENG,SN1,526 Meadow Ridge Place
United Kingdom,GB,England,ENG,EC1V,2 Bonner Lane
United Kingdom,GB,England,ENG,LE15,6 Hovde Center
United Kingdom,GB,England,ENG,S1,64712 Victoria Hill
United Kingdom,GB,England,ENG,PR1,17623 Randy Road
United Kingdom,GB,England,ENG,NE46,281 Dexter Plaza
United Kingdom,GB,England,ENG,S8,3166 Green Ridge Court
United Kingdom,GB,England,ENG,NR34,7 Glendale Court
United Kingdom,GB,England,ENG,NR34,6453 Dawn Plaza
United Kingdom,GB,Scotland,SCT,IV1,82 Schmedeman Crossing
United Kingdom,GB,England,ENG,DL8,335 Upham Avenue
United Kingdom,GB,England,ENG,CV35,46 Merry Plaza
United Kingdom,GB,England,ENG,NG34,74 Melody Trail
United Kingdom,GB,England,ENG,LE16,9 School Junction
United Kingdom,GB,England,ENG,S8,781 Crescent Oaks Circle
United Kingdom,GB,England,ENG,EC1V,6 Vahlen Point
United Kingdom,GB,England,ENG,M34,21 Golf Hill
United Kingdom,GB,England,ENG,LE16,883 Susan Pass
United Kingdom,GB,England,ENG,BS41,88383 Dwight Crossing
United Kingdom,GB,England,ENG,GU32,0 Emmet Street
United Kingdom,GB,England,ENG,L74,9253 Barnett Junction
United Kingdom,GB,Scotland,SCT,EH52,583 Fremont Avenue
United Kingdom,GB,England,ENG,L33,28562 Mariners Cove Court
United Kingdom,GB,England,ENG,RH5,189 Browning Trail
United Kingdom,GB,England,ENG,CT15,55 Anderson Park
United Kingdom,GB,England,ENG,LE14,9 Del Sol Junction
United Kingdom,GB,England,ENG,NG34,74874 Jenifer Circle
United Kingdom,GB,England,ENG,B12,6767 Thompson Court
United Kingdom,GB,Scotland,SCT,EH9,7 Holy Cross Terrace
United Kingdom,GB,England,ENG,DN36,118 Warner Center
United Kingdom,GB,England,ENG,SN1,403 Charing Cross Park
United Kingdom,GB,England,ENG,BD23,459 Oak Crossing
United Kingdom,GB,England,ENG,BD23,4146 Paget Pass
United Kingdom,GB,England,ENG,BD7,3936 Cordelia Road
United Kingdom,GB,England,ENG,NG34,831 Waxwing Point
United Kingdom,GB,England,ENG,N3,96689 Del Mar Road
United Kingdom,GB,Scotland,SCT,PH43,1 Pine View Point
United Kingdom,GB,England,ENG,M14,76 Havey Center
United Kingdom,GB,England,ENG,LE15,851 Lotheville Place
United Kingdom,GB,England,ENG,GU32,5088 Dryden Avenue
United Kingdom,GB,England,ENG,W1F,75968 Muir Road
United Kingdom,GB,England,ENG,S1,6179 Eastwood Trail
United Kingdom,GB,England,ENG,ST20,64 Westport Park
United Kingdom,GB,England,ENG,CV35,433 Northview Circle
United Kingdom,GB,England,ENG,S1,921 Algoma Junction
United Kingdom,GB,England,ENG,N3,4563 Briar Crest Avenue
United Kingdom,GB,England,ENG,DN22,045 Kim Alley
United Kingdom,GB,England,ENG,NR34,48 Corscot Lane
United Kingdom,GB,England,ENG,W1F,8 Straubel Terrace
United Kingdom,GB,England,ENG,OX12,1157 Macpherson Junction
United Kingdom,GB,Scotland,SCT,AB39,332 Daystar Hill
United Kingdom,GB,England,ENG,NN4,8 Roxbury Parkway
United Kingdom,GB,England,ENG,SN1,08998 Clove Pass
United Kingdom,GB,England,ENG,OX12,41941 Blackbird Street
United Kingdom,GB,England,ENG,ST20,2 Heffernan Pass
United Kingdom,GB,England,ENG,BD23,64002 Dottie Park
United Kingdom,GB,England,ENG,CT16,91866 Columbus Pass
United Kingdom,GB,England,ENG,S1,3084 Oxford Place
United Kingdom,GB,England,ENG,SW1E,01187 Surrey Point
United Kingdom,GB,England,ENG,LS6,6 Blackbird Way
United Kingdom,GB,England,ENG,RH5,13 Acker Pass
United Kingdom,GB,England,ENG,S33,7 Sloan Junction
United Kingdom,GB,Scotland,SCT,PH43,15 Moose Way
United Kingdom,GB,England,ENG,ST20,42259 Fremont Park
United Kingdom,GB,England,ENG,B12,57729 Summerview Drive
United Kingdom,GB,England,ENG,DL8,35 Claremont Circle
United Kingdom,GB,Northern Ireland,NIR,BT66,6 Hagan Park
United Kingdom,GB,England,ENG,GU32,190 Cordelia Trail
United Kingdom,GB,England,ENG,B40,772 Bunker Hill Street
United Kingdom,GB,England,ENG,S1,93 Marcy Way
United Kingdom,GB,England,ENG,SW19,8 Memorial Road
United Kingdom,GB,England,ENG,LE14,559 Lakewood Gardens Terrace
United Kingdom,GB,England,ENG,PR1,72 Farragut Hill
United Kingdom,GB,England,ENG,BD23,5956 Dennis Junction
United Kingdom,GB,England,ENG,NR34,40641 Logan Center
United Kingdom,GB,England,ENG,NR29,86 Mosinee Junction
United Kingdom,GB,England,ENG,RG20,880 Old Gate Crossing
United Kingdom,GB,England,ENG,W1F,844 Fordem Court
United Kingdom,GB,England,ENG,BD7,8 Corben Crossing
United Kingdom,GB,England,ENG,NR29,92 Dorton Plaza
United Kingdom,GB,England,ENG,EC1V,53 Northview Terrace
United Kingdom,GB,England,ENG,NE46,33148 Manley Road
United Kingdom,GB,England,ENG,GL54,53 Melvin Hill
United Kingdom,GB,England,ENG,N3,57 6th Avenue
United Kingdom,GB,England,ENG,DN36,175 Green Circle
United Kingdom,GB,England,ENG,NG34,4857 Vera Way
United Kingdom,GB,England,ENG,B40,63 Cardinal Point
United Kingdom,GB,England,ENG,BS37,6427 Killdeer Trail
United Kingdom,GB,England,ENG,WF9,73544 Marcy Pass
United Kingdom,GB,England,ENG,LE15,1581 Forest Run Plaza
United Kingdom,GB,England,ENG,LS6,64 Warbler Drive
United Kingdom,GB,England,ENG,CV35,5 Randy Junction
United Kingdom,GB,England,ENG,SG4,52 Almo Junction
United Kingdom,GB,England,ENG,B40,6896 Atwood Lane
United Kingdom,GB,England,ENG,B12,7 Hoard Terrace
United Kingdom,GB,England,ENG,CT15,94 Forster Center
United Kingdom,GB,England,ENG,SW19,2822 Eggendart Crossing
United Kingdom,GB,England,ENG,EC3M,229 Riverside Drive
United Kingdom,GB,England,ENG,ST20,257 Clarendon Circle
United Kingdom,GB,England,ENG,NN4,1 Michigan Place
United Kingdom,GB,Scotland,SCT,G4,83165 Reinke Place
United Kingdom,GB,England,ENG,GU32,20 Walton Street
United Kingdom,GB,England,ENG,SG4,5 Thierer Road
United Kingdom,GB,England,ENG,W1F,7 Veith Terrace
United Kingdom,GB,England,ENG,NR29,6 Muir Crossing
United Kingdom,GB,England,ENG,NR34,2 Maple Wood Park
United Kingdom,GB,England,ENG,DN21,2 Eliot Way
United Kingdom,GB,England,ENG,CH48,332 3rd Point
United Kingdom,GB,England,ENG,RH5,269 Prairie Rose Alley
United Kingdom,GB,England,ENG,OX12,505 American Place
United Kingdom,GB,England,ENG,BS37,688 Fieldstone Way
United Kingdom,GB,Scotland,SCT,AB56,79211 Milwaukee Terrace
United Kingdom,GB,England,ENG,WC1B,7727 Mandrake Hill
United Kingdom,GB,England,ENG,LE16,3000 Sunbrook Way
United Kingdom,GB,England,ENG,LE15,062 Manley Alley
United Kingdom,GB,England,ENG,DN22,8134 Prentice Circle
United Kingdom,GB,England,ENG,BD23,1 Southridge Avenue
United Kingdom,GB,England,ENG,LE15,7575 Anderson Crossing
United Kingdom,GB,Scotland,SCT,AB39,84 Park Meadow Avenue
United Kingdom,GB,England,ENG,GL54,88814 Sommers Circle
United Kingdom,GB,England,ENG,OX12,012 Sutherland Avenue
United Kingdom,GB,England,ENG,N3,070 Havey Pass
United Kingdom,GB,England,ENG,BD23,9 Chive Lane
United Kingdom,GB,England,ENG,L33,642 Express Park
United Kingdom,GB,England,ENG,LE16,9725 Pine View Terrace
United Kingdom,GB,Scotland,SCT,G4,059 Crownhardt Parkway
United Kingdom,GB,England,ENG,SN1,92 Towne Junction
United Kingdom,GB,England,ENG,S33,836 Cherokee Junction
United Kingdom,GB,England,ENG,DN21,24116 Brickson Park Lane
United Kingdom,GB,England,ENG,BD23,66 Stoughton Point
United Kingdom,GB,England,ENG,ST20,01 American Parkway
United Kingdom,GB,England,ENG,L33,64231 Messerschmidt Pass
United Kingdom,GB,England,ENG,CB4,306 Crescent Oaks Place
United Kingdom,GB,Scotland,SCT,AB56,16079 Toban Way
United Kingdom,GB,England,ENG,DN22,11018 Straubel Point
United Kingdom,GB,England,ENG,NG22,2 Sherman Lane
United Kingdom,GB,England,ENG,BS37,5833 Blue Bill Park Drive
United Kingdom,GB,England,ENG,SW19,249 Oneill Plaza
United Kingdom,GB,England,ENG,EC3M,65 Milwaukee Parkway
United Kingdom,GB,England,ENG,LE15,0829 Ridgeview Center
United Kingdom,GB,England,ENG,S1,0 Erie Way
United Kingdom,GB,England,ENG,DN36,8214 Farmco Avenue
United Kingdom,GB,England,ENG,NG34,0554 Annamark Junction
United Kingdom,GB,England,ENG,RG20,041 Luster Pass
United Kingdom,GB,England,ENG,B40,39571 Dwight Terrace
United Kingdom,GB,England,ENG,NN4,3441 Derek Street
United Kingdom,GB,England,ENG,LE14,89 Warbler Plaza
United Kingdom,GB,Scotland,SCT,AB56,568 Hovde Crossing
United Kingdom,GB,England,ENG,BD23,5457 Talisman Point
United Kingdom,GB,England,ENG,SW19,7 Arrowood Street
United Kingdom,GB,England,ENG,NG22,55 Bluestem Crossing
United Kingdom,GB,England,ENG,BS37,16460 Commercial Lane
United Kingdom,GB,Scotland,SCT,AB39,0719 Monterey Hill
United Kingdom,GB,England,ENG,DL10,097 Manitowish Alley
United Kingdom,GB,England,ENG,EC1V,4 Westport Point
United Kingdom,GB,England,ENG,L74,4738 Cardinal Hill
United Kingdom,GB,England,ENG,DT10,0 Marquette Circle
United Kingdom,GB,Scotland,SCT,EH9,64007 Bowman Plaza
United Kingdom,GB,England,ENG,WF9,95735 Cherokee Park
United Kingdom,GB,England,ENG,SW1E,2 Stang Lane
United Kingdom,GB,England,ENG,LN6,51 Elmside Lane
United Kingdom,GB,England,ENG,CV35,05 Fairfield Center
United Kingdom,GB,England,ENG,RH5,94 Brown Street
United Kingdom,GB,England,ENG,GU32,5393 Independence Plaza
United Kingdom,GB,England,ENG,LN6,765 Ridge Oak Terrace
United Kingdom,GB,England,ENG,SN1,083 Eggendart Pass
United Kingdom,GB,England,ENG,BD23,54532 Eastwood Hill
United Kingdom,GB,England,ENG,LE14,03 Ruskin Place
United Kingdom,GB,England,ENG,NN11,81279 Rockefeller Drive
United Kingdom,GB,England,ENG,SN1,126 Fairview Terrace
United Kingdom,GB,England,ENG,CT15,336 Stuart Street
United Kingdom,GB,England,ENG,DL10,34 Oak Park
United Kingdom,GB,England,ENG,W1F,581 John Wall Hill
United Kingdom,GB,England,ENG,BH21,664 Kinsman Alley
United Kingdom,GB,England,ENG,CB4,037 Carey Junction
United Kingdom,GB,Northern Ireland,NIR,BT2,503 Basil Parkway
United Kingdom,GB,England,ENG,GU32,467 Almo Trail
United Kingdom,GB,England,ENG,WF9,28 Forest Crossing
United Kingdom,GB,England,ENG,DN21,2 Dennis Lane
United Kingdom,GB,England,ENG,TF6,467 Waubesa Way
United Kingdom,GB,Scotland,SCT,EH9,81534 Shopko Hill
United Kingdom,GB,Northern Ireland,NIR,BT2,4 Fairview Terrace
United Kingdom,GB,England,ENG,DN21,8 Sycamore Drive
United Kingdom,GB,England,ENG,S33,33 Monument Center
United Kingdom,GB,England,ENG,WC1B,6 Larry Court
United Kingdom,GB,Scotland,SCT,PH43,2312 Texas Hill
United Kingdom,GB,England,ENG,BS14,83 Holmberg Point
United Kingdom,GB,England,ENG,WC2H,38607 Carioca Circle
United Kingdom,GB,England,ENG,LE15,945 Barby Terrace
United Kingdom,GB,England,ENG,S8,70 Kenwood Pass
United Kingdom,GB,England,ENG,EC1V,1 Blue Bill Park Hill
United Kingdom,GB,England,ENG,RG20,45 Lakewood Gardens Alley
United Kingdom,GB,England,ENG,BD23,59146 Columbus Circle
United Kingdom,GB,England,ENG,SN1,9 Milwaukee Plaza
United Kingdom,GB,England,ENG,BS37,2343 Village Alley
United Kingdom,GB,Scotland,SCT,G4,684 Towne Hill
United Kingdom,GB,England,ENG,B40,38 Trailsway Lane
United Kingdom,GB,England,ENG,LE15,8218 North Center
United Kingdom,GB,England,ENG,BD23,98559 Carberry Drive
United Kingdom,GB,England,ENG,EC1V,58 Blue Bill Park Junction
United Kingdom,GB,England,ENG,N3,9224 Carberry Pass
United Kingdom,GB,England,ENG,RG20,79 Rieder Court
United Kingdom,GB,England,ENG,WF9,5156 Mayer Circle
United Kingdom,GB,Scotland,SCT,AB55,8272 Mandrake Street
United Kingdom,GB,England,ENG,L33,3542 Reindahl Way
United Kingdom,GB,Northern Ireland,NIR,BT2,59 Fairview Street
United Kingdom,GB,England,ENG,BD7,06 Jenifer Hill
United Kingdom,GB,England,ENG,LE15,19243 Nova Circle
United Kingdom,GB,England,ENG,S8,2714 Pond Court
United Kingdom,GB,England,ENG,NG22,1499 Lotheville Point
United Kingdom,GB,England,ENG,CT16,67340 Waxwing Circle
United Kingdom,GB,England,ENG,CB4,436 Roth Court
United Kingdom,GB,Scotland,SCT,IV1,07 Lillian Crossing
United Kingdom,GB,England,ENG,SG4,01 Southridge Court
United Kingdom,GB,Scotland,SCT,AB56,6314 Dapin Terrace
United Kingdom,GB,England,ENG,LN6,9882 Steensland Court
United Kingdom,GB,England,ENG,LE16,7340 Crest Line Street
United Kingdom,GB,England,ENG,GL54,57066 Kenwood Avenue
United Kingdom,GB,England,ENG,NE46,826 Elka Circle
United Kingdom,GB,England,ENG,NN4,260 Mallard Road
United Kingdom,GB,England,ENG,LN6,525 Longview Trail
United Kingdom,GB,England,ENG,W1F,23305 Merchant Drive
United Kingdom,GB,England,ENG,DL8,05549 Del Mar Drive
United Kingdom,GB,Scotland,SCT,AB56,58961 Mandrake Street
United Kingdom,GB,England,ENG,LN6,3015 Briar Crest Circle
United Kingdom,GB,England,ENG,BS37,926 Forest Run Junction
United Kingdom,GB,Scotland,SCT,KW10,59 Portage Street
United Kingdom,GB,England,ENG,BD23,8 Ramsey Pass
United Kingdom,GB,England,ENG,WC1B,1548 Dryden Hill
United Kingdom,GB,England,ENG,BS37,46 Oxford Drive
United Kingdom,GB,Scotland,SCT,AB56,20 Truax Circle
United Kingdom,GB,England,ENG,L33,999 Gateway Pass
United Kingdom,GB,England,ENG,TF6,123 Farragut Trail
United Kingdom,GB,England,ENG,WF9,1377 Sugar Pass
United Kingdom,GB,Northern Ireland,NIR,BT2,4 Anthes Park
United Kingdom,GB,Scotland,SCT,KW10,07 Westport Place
United Kingdom,GB,England,ENG,EC3M,625 Prairieview Center
United Kingdom,GB,England,ENG,NE46,71 Magdeline Drive
United Kingdom,GB,England,ENG,L33,17957 Kennedy Drive
United Kingdom,GB,England,ENG,OX7,6590 Macpherson Lane
United Kingdom,GB,England,ENG,ST20,59 Monterey Pass
United Kingdom,GB,England,ENG,OX7,2 Daystar Junction
United Kingdom,GB,England,ENG,ST20,8 Independence Park
United Kingdom,GB,England,ENG,L74,136 Hanson Hill
United Kingdom,GB,England,ENG,W1F,0178 Melrose Street
United Kingdom,GB,England,ENG,OX7,1421 Delaware Plaza
United Kingdom,GB,England,ENG,M34,5645 Dakota Lane
United Kingdom,GB,Northern Ireland,NIR,BT66,775 Atwood Plaza
United Kingdom,GB,England,ENG,CB4,705 Cordelia Center
United Kingdom,GB,England,ENG,BD23,4120 Pearson Junction
United Kingdom,GB,England,ENG,GL54,77706 Rigney Street
United Kingdom,GB,England,ENG,M34,2 Sutherland Drive
United Kingdom,GB,England,ENG,GU32,80111 Fulton Junction
United Kingdom,GB,England,ENG,CV35,8429 Lerdahl Parkway
United Kingdom,GB,England,ENG,SW1E,0655 Portage Place
United Kingdom,GB,England,ENG,NR34,36517 Sachtjen Crossing
United Kingdom,GB,Scotland,SCT,IV1,0112 Monument Junction
United Kingdom,GB,England,ENG,CV35,201 Scofield Junction
United Kingdom,GB,England,ENG,SN1,24927 6th Road
United Kingdom,GB,England,ENG,OX12,695 Northport Court
United Kingdom,GB,England,ENG,EC3M,6363 Randy Alley
United Kingdom,GB,England,ENG,LS9,5662 Holmberg Circle
United Kingdom,GB,England,ENG,GU32,42186 Carberry Parkway
United Kingdom,GB,England,ENG,OX7,8575 Schlimgen Trail
United Kingdom,GB,England,ENG,NG34,73 Fairfield Road
United Kingdom,GB,England,ENG,SW1E,9 Eastwood Trail
United Kingdom,GB,England,ENG,SW1E,27 Starling Court
United Kingdom,GB,England,ENG,TF6,5 Golf Course Trail
United Kingdom,GB,England,ENG,CV35,268 Mayfield Avenue
United Kingdom,GB,England,ENG,SW19,3 Harbort Terrace
United Kingdom,GB,England,ENG,BS41,207 Karstens Pass
United Kingdom,GB,England,ENG,DN21,8832 Chinook Avenue
United Kingdom,GB,England,ENG,GU32,6 Di Loreto Trail
United Kingdom,GB,Scotland,SCT,EH9,92 Laurel Junction
United Kingdom,GB,England,ENG,LE15,069 Del Sol Junction
United Kingdom,GB,Scotland,SCT,KW10,3409 Kedzie Way
United Kingdom,GB,England,ENG,DL8,83238 Blue Bill Park Street
United Kingdom,GB,England,ENG,L33,35 Manley Alley
United Kingdom,GB,England,ENG,BS41,36 Kropf Crossing
United Kingdom,GB,England,ENG,GU32,05 Ohio Pass
United Kingdom,GB,Scotland,SCT,AB39,10035 Dawn Road
United Kingdom,GB,England,ENG,CV35,3 Kensington Street
United Kingdom,GB,Northern Ireland,NIR,BT2,5 7th Place
United Kingdom,GB,Scotland,SCT,KW10,899 Kenwood Street
United Kingdom,GB,England,ENG,N3,785 Derek Hill
United Kingdom,GB,Scotland,SCT,AB56,12814 Pine View Drive
United Kingdom,GB,Wales,WLS,SY4,3 Burning Wood Lane
United Kingdom,GB,England,ENG,DN22,7067 Dahle Alley
United Kingdom,GB,England,ENG,OX12,34657 Londonderry Trail
United Kingdom,GB,Scotland,SCT,EH52,416 Prairie Rose Crossing
United Kingdom,GB,England,ENG,SN1,793 Pearson Terrace
United Kingdom,GB,Scotland,SCT,KW10,90864 Oneill Center
United Kingdom,GB,England,ENG,LS6,7 Sugar Alley
United Kingdom,GB,England,ENG,RG20,9939 8th Center
United Kingdom,GB,Scotland,SCT,PH43,04206 Debs Street
United Kingdom,GB,England,ENG,W1F,390 Laurel Drive
United Kingdom,GB,England,ENG,ST20,70793 Toban Place
United Kingdom,GB,England,ENG,CH48,9455 Brickson Park Junction
United Kingdom,GB,England,ENG,DL10,90 Onsgard Trail
United Kingdom,GB,England,ENG,B40,6 Shasta Pass
United Kingdom,GB,England,ENG,BS37,8814 Annamark Drive
United Kingdom,GB,England,ENG,M14,36 Shoshone Place
United Kingdom,GB,England,ENG,CT16,76205 Merry Hill
United Kingdom,GB,England,ENG,SW19,425 Mcguire Parkway
United Kingdom,GB,England,ENG,M14,030 Jackson Street
United Kingdom,GB,England,ENG,BS37,6238 Lerdahl Drive
United Kingdom,GB,England,ENG,SG4,4 Loftsgordon Terrace
United Kingdom,GB,England,ENG,CH48,46 Onsgard Street
United Kingdom,GB,England,ENG,SN1,06948 Leroy Crossing
United Kingdom,GB,England,ENG,RG20,8 Ilene Circle
United Kingdom,GB,England,ENG,BD7,3134 Forest Dale Trail
United Kingdom,GB,Scotland,SCT,AB39,3111 Del Mar Hill
United Kingdom,GB,England,ENG,WF9,62198 Loftsgordon Circle
United Kingdom,GB,England,ENG,LE14,94 Forest Run Point
United Kingdom,GB,England,ENG,DN22,3023 Golf View Drive
United Kingdom,GB,England,ENG,BS14,5108 Lyons Circle
United Kingdom,GB,England,ENG,SN1,563 Hallows Park
United Kingdom,GB,England,ENG,SW1E,0733 Delladonna Road
United Kingdom,GB,England,ENG,NR34,3 Everett Pass
United Kingdom,GB,England,ENG,WF9,1 Mifflin Circle
United Kingdom,GB,England,ENG,B12,25347 Iowa Street
United Kingdom,GB,England,ENG,L33,08 Shoshone Circle
United Kingdom,GB,England,ENG,NE46,9 West Crossing
United Kingdom,GB,England,ENG,SN13,4 Northland Circle
United Kingdom,GB,Scotland,SCT,IV1,29 Leroy Pass
United Kingdom,GB,England,ENG,OX7,0 Blaine Place
United Kingdom,GB,England,ENG,LE15,6 Oak Valley Plaza
United Kingdom,GB,England,ENG,LE15,5 Commercial Terrace
United Kingdom,GB,Northern Ireland,NIR,BT2,0 Brown Parkway
United Kingdom,GB,England,ENG,RG20,92023 Debs Place
United Kingdom,GB,England,ENG,BS37,4522 Ramsey Circle
United Kingdom,GB,England,ENG,NN11,201 Steensland Park
United Kingdom,GB,England,ENG,B40,7338 Debra Hill
United Kingdom,GB,England,ENG,CT16,84 Clemons Plaza
United Kingdom,GB,Scotland,SCT,EH52,43 Manitowish Road
United Kingdom,GB,Scotland,SCT,IV1,1097 Marquette Plaza
United Kingdom,GB,England,ENG,EC3M,5 Mifflin Parkway
United Kingdom,GB,England,ENG,LE15,60 Dryden Parkway
United Kingdom,GB,England,ENG,BD7,19599 Dovetail Parkway
United Kingdom,GB,England,ENG,S8,3 Columbus Crossing
United Kingdom,GB,England,ENG,DN21,8 Novick Park
United Kingdom,GB,England,ENG,BD23,36768 Victoria Plaza
United Kingdom,GB,England,ENG,PR1,67 4th Avenue
United Kingdom,GB,Scotland,SCT,G4,31 Northland Alley
United Kingdom,GB,Scotland,SCT,EH9,4007 West Junction
United Kingdom,GB,Northern Ireland,NIR,BT66,5 Bowman Alley
United Kingdom,GB,England,ENG,M14,8157 Forster Circle
United Kingdom,GB,England,ENG,BS37,57 Grim Road
United Kingdom,GB,England,ENG,ST20,1722 Bowman Avenue
United Kingdom,GB,England,ENG,CT15,08 Upham Junction
United Kingdom,GB,England,ENG,GU32,8 Corry Parkway
United Kingdom,GB,England,ENG,GL54,7377 Clove Way
United Kingdom,GB,England,ENG,SG4,7660 American Ash Road
United Kingdom,GB,England,ENG,DL8,2 Dakota Drive
United Kingdom,GB,England,ENG,WC1B,09267 Thompson Trail
United Kingdom,GB,England,ENG,LE15,7274 Westridge Terrace
United Kingdom,GB,England,ENG,SN13,45985 Roth Street
United Kingdom,GB,Northern Ireland,NIR,BT2,056 Park Meadow Hill
United Kingdom,GB,England,ENG,GU32,854 Merchant Park
United Kingdom,GB,Scotland,SCT,AB39,130 Petterle Street
United Kingdom,GB,England,ENG,ST20,6 Sunbrook Pass
United Kingdom,GB,England,ENG,CT16,225 Bowman Terrace
United Kingdom,GB,England,ENG,RH5,58 Village Green Junction
United Kingdom,GB,England,ENG,NR34,8498 Quincy Alley
United Kingdom,GB,England,ENG,DL8,09 Del Sol Drive
United Kingdom,GB,England,ENG,BS41,29 Dixon Park
United Kingdom,GB,England,ENG,PR1,7 Oakridge Way
United Kingdom,GB,Wales,WLS,SY4,5962 Eagan Place
United Kingdom,GB,England,ENG,DT10,1 Atwood Point
United Kingdom,GB,England,ENG,ST20,26337 Straubel Park
United Kingdom,GB,England,ENG,TF6,91189 Green Ridge Place
United Kingdom,GB,Northern Ireland,NIR,BT2,81102 Butternut Alley
United Kingdom,GB,England,ENG,PR1,5109 Welch Circle
United Kingdom,GB,Wales,WLS,SY4,13 Swallow Lane
United Kingdom,GB,England,ENG,LE16,5467 Mockingbird Hill
United Kingdom,GB,England,ENG,OX12,5 Scott Place
United Kingdom,GB,England,ENG,WC2H,67 Garrison Road
United Kingdom,GB,England,ENG,LS9,6849 Kinsman Avenue
United Kingdom,GB,England,ENG,L33,69 Manufacturers Park
United Kingdom,GB,England,ENG,DN21,17 Graceland Park
United Kingdom,GB,England,ENG,BS14,898 Briar Crest Road
United Kingdom,GB,England,ENG,S33,24925 Mcbride Place
United Kingdom,GB,England,ENG,B40,4 Stoughton Avenue
United Kingdom,GB,England,ENG,RH5,14213 Granby Avenue
United Kingdom,GB,England,ENG,DL8,4 Linden Alley
United Kingdom,GB,England,ENG,BD23,44 Myrtle Park
United Kingdom,GB,England,ENG,SW1E,9607 Shelley Center
United Kingdom,GB,England,ENG,PR1,20072 Novick Pass
United Kingdom,GB,England,ENG,RG20,342 Gerald Court
United Kingdom,GB,England,ENG,M34,75197 Fremont Drive
United Kingdom,GB,England,ENG,NG34,5559 Ruskin Crossing
United Kingdom,GB,England,ENG,L74,682 Mallard Street
United Kingdom,GB,England,ENG,B12,32 Tennyson Trail
United Kingdom,GB,England,ENG,S8,98 Dorton Drive
United Kingdom,GB,England,ENG,B12,78168 Vermont Hill
United Kingdom,GB,Scotland,SCT,KW10,4787 Glacier Hill Junction
United Kingdom,GB,England,ENG,CT15,0 Hazelcrest Crossing
United Kingdom,GB,Scotland,SCT,EH52,7 Crownhardt Avenue
United Kingdom,GB,Scotland,SCT,AB56,098 Ridgeway Road
United Kingdom,GB,England,ENG,BS41,9 Moose Alley
United Kingdom,GB,England,ENG,DN21,57 Larry Alley
United Kingdom,GB,England,ENG,LE14,61 Sauthoff Parkway
United Kingdom,GB,England,ENG,W1F,3166 Leroy Parkway
United Kingdom,GB,England,ENG,WC1B,01356 Cardinal Way
United Kingdom,GB,England,ENG,BH21,1 Independence Avenue
United Kingdom,GB,England,ENG,LS9,495 Clemons Alley
United Kingdom,GB,England,ENG,LE15,00640 Grayhawk Center
United Kingdom,GB,England,ENG,NG22,5 Bobwhite Junction
United Kingdom,GB,England,ENG,S1,459 New Castle Trail
United Kingdom,GB,England,ENG,LE16,15 Memorial Trail
United Kingdom,GB,England,ENG,BD23,67 West Circle
United Kingdom,GB,Northern Ireland,NIR,BT66,1350 Blaine Plaza
United Kingdom,GB,England,ENG,OX12,85807 Meadow Valley Lane
United Kingdom,GB,England,ENG,OX7,1787 Towne Place
United Kingdom,GB,Scotland,SCT,EH9,9025 Sachtjen Circle
United Kingdom,GB,England,ENG,NG22,1 Thackeray Place
United Kingdom,GB,England,ENG,BH21,0361 Crowley Crossing
United Kingdom,GB,England,ENG,OX12,9958 Dakota Junction
United Kingdom,GB,England,ENG,LE15,5 Larry Alley
United Kingdom,GB,England,ENG,LE15,3282 Mcbride Hill
United Kingdom,GB,England,ENG,RG20,1 Barby Place
United Kingdom,GB,England,ENG,DT10,441 Messerschmidt Terrace
United Kingdom,GB,England,ENG,OX7,5538 Darwin Trail
United Kingdom,GB,England,ENG,B40,1442 Algoma Way
United Kingdom,GB,Scotland,SCT,PH43,2886 Oriole Center
United Kingdom,GB,England,ENG,LE15,40 Rusk Junction
United Kingdom,GB,Scotland,SCT,IV1,48 Declaration Junction
United Kingdom,GB,England,ENG,DL10,7960 Ruskin Junction
United Kingdom,GB,England,ENG,BS14,87663 Forest Dale Park
United Kingdom,GB,Scotland,SCT,PH43,9 Heath Way
United Kingdom,GB,Scotland,SCT,AB39,59 Hintze Point
United Kingdom,GB,England,ENG,W1F,30248 Corscot Plaza
United Kingdom,GB,England,ENG,SN13,847 Schmedeman Crossing
United Kingdom,GB,England,ENG,CT16,0 Scoville Parkway
United Kingdom,GB,England,ENG,LE14,719 Bay Alley
United Kingdom,GB,England,ENG,DN36,401 Hagan Street
United Kingdom,GB,England,ENG,B12,7 Monica Court
United Kingdom,GB,England,ENG,GL54,439 Westerfield Drive
United Kingdom,GB,England,ENG,N3,9 Luster Parkway
United Kingdom,GB,England,ENG,LE15,6 Dawn Lane
United Kingdom,GB,England,ENG,DN22,39178 Crownhardt Road
United Kingdom,GB,Northern Ireland,NIR,BT66,10915 Merry Place
United Kingdom,GB,England,ENG,CT16,9222 Alpine Alley
United Kingdom,GB,England,ENG,BS41,91173 Carioca Crossing
United Kingdom,GB,England,ENG,RH5,9 Comanche Crossing
United Kingdom,GB,Scotland,SCT,AB39,3 Longview Court
United Kingdom,GB,England,ENG,EC1V,4074 Arrowood Terrace
United Kingdom,GB,England,ENG,LE15,88 Elgar Way
United Kingdom,GB,Wales,WLS,SY4,36 Badeau Lane
United Kingdom,GB,England,ENG,BD7,30 Haas Place
United Kingdom,GB,England,ENG,LS6,70230 Weeping Birch Center
United Kingdom,GB,England,ENG,NR29,4 Fair Oaks Circle
United Kingdom,GB,England,ENG,S33,72 Farwell Drive
United Kingdom,GB,England,ENG,CV35,40450 Carberry Place
United Kingdom,GB,England,ENG,DN21,1781 Lien Parkway
United Kingdom,GB,England,ENG,B40,94437 Oriole Center
United Kingdom,GB,Scotland,SCT,AB55,5345 Brentwood Road
United Kingdom,GB,England,ENG,WC2H,20 Lighthouse Bay Alley
United Kingdom,GB,England,ENG,OX12,71 Morrow Plaza
United Kingdom,GB,England,ENG,CT16,5958 Red Cloud Parkway
United Kingdom,GB,England,ENG,N3,14573 Saint Paul Court
United Kingdom,GB,England,ENG,BD23,42926 Kropf Hill
United Kingdom,GB,England,ENG,NG34,47 Kensington Trail
United Kingdom,GB,England,ENG,SN13,66 Larry Trail
United Kingdom,GB,England,ENG,DN22,4851 Grim Center
United Kingdom,GB,England,ENG,CT15,2847 Independence Junction
United Kingdom,GB,England,ENG,SN1,722 Drewry Center
United Kingdom,GB,England,ENG,NR34,240 Gateway Circle
United Kingdom,GB,Scotland,SCT,G4,15509 Dryden Center
United Kingdom,GB,England,ENG,CV35,352 Summerview Avenue
United Kingdom,GB,England,ENG,ST20,5 Namekagon Drive
United Kingdom,GB,England,ENG,L74,0 Macpherson Way
United Kingdom,GB,England,ENG,BH21,750 Melody Circle
United Kingdom,GB,England,ENG,NR29,2 Harper Avenue
United Kingdom,GB,England,ENG,B12,83 Stephen Place
United Kingdom,GB,England,ENG,SW1E,2716 Roth Road
United Kingdom,GB,England,ENG,RG20,2 Ilene Circle
United Kingdom,GB,England,ENG,LE16,5878 Loomis Avenue
United Kingdom,GB,England,ENG,L33,938 Jay Plaza
United Kingdom,GB,England,ENG,CV35,245 Corry Center
United Kingdom,GB,Northern Ireland,NIR,BT2,3978 Burning Wood Court
United Kingdom,GB,England,ENG,RH5,42243 Grasskamp Junction
United Kingdom,GB,England,ENG,S1,25986 Grover Court
United Kingdom,GB,England,ENG,BS14,64 Dottie Park
United Kingdom,GB,England,ENG,ST20,4043 Upham Hill
United Kingdom,GB,England,ENG,S1,943 Sycamore Circle
United Kingdom,GB,England,ENG,CB4,85 Prairie Rose Trail
United Kingdom,GB,England,ENG,NG22,05008 School Lane
United Kingdom,GB,England,ENG,BD7,3 Anzinger Place
United Kingdom,GB,England,ENG,GL54,3 Stuart Hill
United Kingdom,GB,England,ENG,S1,729 Tennyson Alley
United Kingdom,GB,England,ENG,BD7,8 Corry Way
United Kingdom,GB,England,ENG,EC3M,581 Calypso Road
United Kingdom,GB,England,ENG,RG20,7 David Lane
United Kingdom,GB,Scotland,SCT,IV1,9 Browning Trail
United Kingdom,GB,Scotland,SCT,EH52,40727 Springs Lane
United Kingdom,GB,England,ENG,S33,13511 Glacier Hill Street
United Kingdom,GB,England,ENG,NN11,32 Holy Cross Court
United Kingdom,GB,England,ENG,SG4,4 Myrtle Plaza
United Kingdom,GB,England,ENG,BD23,19098 Banding Court
United Kingdom,GB,England,ENG,DL10,1659 Westport Place
United Kingdom,GB,England,ENG,DT10,11 Fieldstone Plaza
United Kingdom,GB,England,ENG,ST20,8486 Pine View Plaza
United Kingdom,GB,Wales,WLS,SY4,3 Michigan Parkway
United Kingdom,GB,England,ENG,RG20,7 Sachs Hill
United Kingdom,GB,England,ENG,S33,12907 Hovde Crossing
United Kingdom,GB,England,ENG,S1,63315 Sommers Lane
United Kingdom,GB,England,ENG,CT16,14010 Mallory Place
United Kingdom,GB,England,ENG,DL8,0643 Swallow Parkway
United Kingdom,GB,Scotland,SCT,AB55,1 Little Fleur Alley
United Kingdom,GB,England,ENG,BD23,802 Emmet Way
United Kingdom,GB,England,ENG,CV35,441 Memorial Park
United Kingdom,GB,Scotland,SCT,AB39,054 Moose Avenue
United Kingdom,GB,Scotland,SCT,EH9,09234 Dwight Junction
United Kingdom,GB,Scotland,SCT,G4,7415 Southridge Way
United Kingdom,GB,England,ENG,PR1,9630 Artisan Place
United Kingdom,GB,England,ENG,S33,028 Riverside Plaza
United Kingdom,GB,England,ENG,CT16,4 Northview Park
United Kingdom,GB,Scotland,SCT,AB56,99797 Kennedy Place
United Kingdom,GB,England,ENG,LN6,3 Talisman Hill
United Kingdom,GB,England,ENG,SW1E,4 Bay Park
United Kingdom,GB,England,ENG,LE14,61 Springs Lane
United Kingdom,GB,England,ENG,B40,18911 New Castle Pass
United Kingdom,GB,England,ENG,CV35,7 Marquette Terrace
United Kingdom,GB,England,ENG,NN11,41 Swallow Terrace
United Kingdom,GB,Wales,WLS,SY4,3469 Jenifer Center
United Kingdom,GB,England,ENG,DL8,06858 Lakeland Park
United Kingdom,GB,England,ENG,PR1,244 Bluejay Drive
United Kingdom,GB,England,ENG,PR1,86 Ryan Lane
United Kingdom,GB,England,ENG,M14,95990 Elka Center
United Kingdom,GB,England,ENG,EC1V,23641 Oak Valley Lane
United Kingdom,GB,England,ENG,NN11,907 Stoughton Parkway
United Kingdom,GB,Scotland,SCT,EH52,775 Commercial Hill
United Kingdom,GB,England,ENG,LE15,62 Bashford Point
United Kingdom,GB,England,ENG,BH21,9099 High Crossing Terrace
United Kingdom,GB,England,ENG,LE14,330 Fieldstone Junction
United Kingdom,GB,England,ENG,L33,1 Center Plaza
United Kingdom,GB,England,ENG,NG22,6 Derek Pass
United Kingdom,GB,Scotland,SCT,AB39,33460 Monterey Pass
United Kingdom,GB,England,ENG,SN13,66341 Service Hill
United Kingdom,GB,England,ENG,M34,68165 Morningstar Pass
United Kingdom,GB,England,ENG,LE14,85 Tennessee Terrace
United Kingdom,GB,England,ENG,CT15,50434 Chinook Center
United Kingdom,GB,England,ENG,SW19,736 Butternut Alley
United Kingdom,GB,England,ENG,BS14,473 Pine View Trail
United Kingdom,GB,England,ENG,CH48,1 Hovde Place
United Kingdom,GB,England,ENG,CT15,262 Dakota Point
United Kingdom,GB,Scotland,SCT,AB55,50 Elmside Road
United Kingdom,GB,England,ENG,ST20,82937 Anhalt Terrace
United Kingdom,GB,England,ENG,PR1,09961 Bunting Circle
United Kingdom,GB,England,ENG,BH21,5470 Ilene Plaza
United Kingdom,GB,England,ENG,LS9,9 Bluejay Hill
United Kingdom,GB,England,ENG,LE15,0 Lake View Way
United Kingdom,GB,England,ENG,WC1B,95 Prairie Rose Pass
United Kingdom,GB,England,ENG,SN13,6333 Monterey Court
United Kingdom,GB,England,ENG,NE46,4 Ramsey Crossing
United Kingdom,GB,England,ENG,LS6,253 Nevada Place
United Kingdom,GB,Scotland,SCT,AB56,39 Rieder Avenue
United Kingdom,GB,Scotland,SCT,AB39,5 Brentwood Terrace
United Kingdom,GB,England,ENG,NR29,038 Hoard Drive
United Kingdom,GB,England,ENG,LN6,40929 Sundown Crossing
United Kingdom,GB,England,ENG,TF6,91231 Kinsman Parkway
United Kingdom,GB,England,ENG,W1F,9058 Southridge Drive
United Kingdom,GB,England,ENG,BH21,03 Havey Avenue
United Kingdom,GB,England,ENG,CB4,0 Kropf Park
United Kingdom,GB,England,ENG,SG4,7 Spohn Hill
United Kingdom,GB,England,ENG,NR34,10573 Gateway Point
United Kingdom,GB,England,ENG,DN21,242 Ramsey Terrace
United Kingdom,GB,England,ENG,L33,4 Bartillon Plaza
United Kingdom,GB,England,ENG,M34,1304 Emmet Circle
United Kingdom,GB,England,ENG,N3,861 Monument Pass
United Kingdom,GB,England,ENG,BD7,1 Lakeland Park
United Kingdom,GB,England,ENG,LE14,78 Katie Alley
United Kingdom,GB,England,ENG,LS6,314 Dayton Alley
United Kingdom,GB,England,ENG,LE14,5 Macpherson Park
United Kingdom,GB,Scotland,SCT,EH9,905 Donald Alley
United Kingdom,GB,Wales,WLS,SY4,1 Sullivan Point
United Kingdom,GB,Scotland,SCT,KW10,1 Pond Park
United Kingdom,GB,England,ENG,LE15,179 Farragut Road
United Kingdom,GB,England,ENG,GL54,3 Beilfuss Park
United Kingdom,GB,England,ENG,NR29,6878 Mcguire Crossing
United Kingdom,GB,England,ENG,CB4,4069 2nd Road
United Kingdom,GB,England,ENG,LN6,24 Mallory Way
United Kingdom,GB,England,ENG,SN13,21 International Parkway
United Kingdom,GB,England,ENG,DN36,50 Debra Center
United Kingdom,GB,England,ENG,RH5,97 Green Ridge Hill
United Kingdom,GB,England,ENG,SW19,131 Myrtle Parkway
United Kingdom,GB,England,ENG,BS14,7546 Lindbergh Way
United Kingdom,GB,England,ENG,BS14,40 Moland Parkway
United Kingdom,GB,England,ENG,BS37,8 Mariners Cove Crossing
United Kingdom,GB,England,ENG,WC2H,78 Burrows Lane
United Kingdom,GB,England,ENG,LE15,0673 Eagan Park
United Kingdom,GB,England,ENG,NR34,87 Artisan Hill
United Kingdom,GB,England,ENG,BH21,61 Golf Course Road
United Kingdom,GB,England,ENG,B40,8 Hayes Plaza
United Kingdom,GB,Scotland,SCT,EH9,327 Bluestem Road
United Kingdom,GB,England,ENG,BD23,1078 Bunker Hill Circle
United Kingdom,GB,Scotland,SCT,AB55,5 Gina Crossing
United Kingdom,GB,England,ENG,BS41,76716 8th Pass
United Kingdom,GB,Scotland,SCT,AB39,47 Meadow Valley Trail
United Kingdom,GB,England,ENG,M34,75 Mccormick Road
United Kingdom,GB,England,ENG,NE46,48397 Trailsway Point
United Kingdom,GB,England,ENG,BD7,8457 Bluejay Parkway
United Kingdom,GB,England,ENG,GL54,3 Colorado Pass
United Kingdom,GB,England,ENG,DL8,68 Mccormick Trail
United Kingdom,GB,England,ENG,DN21,75 School Trail
United Kingdom,GB,Scotland,SCT,IV1,03 Kingsford Drive
United Kingdom,GB,England,ENG,NE46,344 Hallows Crossing
United Kingdom,GB,England,ENG,CH48,91562 Fairview Terrace
United Kingdom,GB,England,ENG,BS41,3 Orin Plaza
United Kingdom,GB,England,ENG,BD23,569 Bonner Plaza
United Kingdom,GB,England,ENG,LE15,67 Farragut Drive
United Kingdom,GB,England,ENG,BS37,5516 Victoria Terrace
United Kingdom,GB,England,ENG,RG20,8263 Harper Road
United Kingdom,GB,England,ENG,L74,19 Dwight Road
United Kingdom,GB,England,ENG,NG22,271 Bluejay Center
United Kingdom,GB,England,ENG,LE16,7498 Bashford Alley
United Kingdom,GB,Scotland,SCT,G4,87 Kedzie Point
United Kingdom,GB,England,ENG,NG34,5375 Kennedy Point
United Kingdom,GB,England,ENG,TF6,43 Spaight Point
United Kingdom,GB,Scotland,SCT,G4,5 Spohn Street
United Kingdom,GB,England,ENG,RG20,8 Goodland Road
United Kingdom,GB,England,ENG,M34,95 Mifflin Place
United Kingdom,GB,England,ENG,NG34,4665 Moland Place
United Kingdom,GB,England,ENG,BD23,2 Truax Drive
United Kingdom,GB,England,ENG,DT10,6 3rd Court
United Kingdom,GB,England,ENG,RH5,1402 Sutteridge Park
United Kingdom,GB,England,ENG,CH48,84688 Burning Wood Court
United Kingdom,GB,England,ENG,DN22,9224 Lakeland Junction
United Kingdom,GB,England,ENG,BS37,9 Bashford Terrace
United Kingdom,GB,England,ENG,SN1,3100 Fremont Drive
United Kingdom,GB,England,ENG,NE46,52 Superior Way
United Kingdom,GB,Northern Ireland,NIR,BT2,8391 Village Green Drive
United Kingdom,GB,England,ENG,RH5,851 Mariners Cove Trail
United Kingdom,GB,England,ENG,SN1,1605 Di Loreto Drive
United Kingdom,GB,England,ENG,L74,767 Fordem Court
United Kingdom,GB,England,ENG,WC1B,3 Carberry Alley
United Kingdom,GB,England,ENG,NN11,87966 Spaight Lane
United Kingdom,GB,England,ENG,SG4,30 Park Meadow Junction
United Kingdom,GB,England,ENG,PR1,33 Waubesa Lane
United Kingdom,GB,England,ENG,BS41,2958 Becker Circle
United Kingdom,GB,England,ENG,LE16,5 Service Park
United Kingdom,GB,England,ENG,SW19,30 Clyde Gallagher Lane
United Kingdom,GB,England,ENG,OX7,245 Gale Park
United Kingdom,GB,England,ENG,SN13,1671 Veith Junction
United Kingdom,GB,Scotland,SCT,AB55,2 Loftsgordon Park
United Kingdom,GB,England,ENG,LS9,2786 Mcbride Point
United Kingdom,GB,England,ENG,S1,72 Burning Wood Park
United Kingdom,GB,England,ENG,BD7,3104 Melody Park
United Kingdom,GB,England,ENG,LS9,5 Westend Circle
United Kingdom,GB,England,ENG,S8,90 2nd Court
United Kingdom,GB,England,ENG,BH21,909 Jenna Street
United Kingdom,GB,England,ENG,DN36,963 Susan Trail
United Kingdom,GB,England,ENG,S33,84 Fulton Point
United Kingdom,GB,England,ENG,BD23,32 Shopko Hill
United Kingdom,GB,England,ENG,CV35,5694 Amoth Pass
United Kingdom,GB,England,ENG,BS37,266 John Wall Lane
United Kingdom,GB,England,ENG,RG20,84 Randy Junction
United Kingdom,GB,England,ENG,BD23,510 Lighthouse Bay Way
United Kingdom,GB,Scotland,SCT,PH43,0 Westend Street
United Kingdom,GB,England,ENG,BS37,4122 Troy Park
United Kingdom,GB,England,ENG,SW19,2 Mesta Drive
United Kingdom,GB,England,ENG,DN22,93 Manley Street
United Kingdom,GB,Scotland,SCT,PH43,8058 Sloan Point
United Kingdom,GB,England,ENG,RH5,3972 Monument Terrace
United Kingdom,GB,Scotland,SCT,PH43,58842 Florence Street
United Kingdom,GB,England,ENG,S1,3386 7th Parkway
United Kingdom,GB,England,ENG,BS14,6612 Melody Trail
United Kingdom,GB,England,ENG,S8,6 Scott Hill
United Kingdom,GB,England,ENG,PR1,77 Old Gate Street
United Kingdom,GB,England,ENG,SW1E,0 Armistice Avenue
United Kingdom,GB,Scotland,SCT,EH9,0777 Basil Trail
United Kingdom,GB,England,ENG,BS41,694 Debs Center
United Kingdom,GB,Northern Ireland,NIR,BT2,3825 Erie Court
United Kingdom,GB,England,ENG,L74,69912 Lunder Hill
United Kingdom,GB,England,ENG,WC1B,6689 Harper Trail
United Kingdom,GB,England,ENG,OX7,8 Oak Valley Crossing
United Kingdom,GB,England,ENG,LN6,11296 Bashford Trail
United Kingdom,GB,England,ENG,DN36,1 Jenna Street
United Kingdom,GB,England,ENG,N3,071 Haas Alley
United Kingdom,GB,England,ENG,DT10,7 Lakewood Gardens Circle
United Kingdom,GB,England,ENG,GL54,852 Spaight Place
United Kingdom,GB,England,ENG,LS6,81 Dixon Center
United Kingdom,GB,England,ENG,LS6,934 Gerald Crossing
United Kingdom,GB,England,ENG,NE46,7710 Chinook Point
United Kingdom,GB,England,ENG,NE46,2417 Red Cloud Point
United Kingdom,GB,Scotland,SCT,EH52,823 Meadow Vale Drive
United Kingdom,GB,Scotland,SCT,KW10,52 Brown Park
United Kingdom,GB,England,ENG,ST20,8 Heffernan Trail
United Kingdom,GB,England,ENG,B12,2 3rd Pass
United Kingdom,GB,England,ENG,NN11,6425 Village Place
United Kingdom,GB,England,ENG,DT10,041 Maple Wood Place
United Kingdom,GB,Scotland,SCT,KW10,6 Myrtle Junction
United Kingdom,GB,England,ENG,LE15,244 Calypso Street
United Kingdom,GB,England,ENG,BD23,726 Forest Terrace
United Kingdom,GB,Scotland,SCT,EH52,772 Loftsgordon Court
United Kingdom,GB,Northern Ireland,NIR,BT2,97312 Cordelia Drive
United Kingdom,GB,Scotland,SCT,AB56,23 Granby Way
United Kingdom,GB,England,ENG,BD7,71 Shelley Pass
United Kingdom,GB,England,ENG,BD23,2097 Forest Dale Place
United Kingdom,GB,England,ENG,CH48,8636 Shelley Trail
United Kingdom,GB,England,ENG,CV35,3917 Moland Hill
United Kingdom,GB,England,ENG,LS6,87228 Randy Street
United Kingdom,GB,England,ENG,NG22,2404 Calypso Plaza
United Kingdom,GB,England,ENG,DL8,4546 Daystar Park
United Kingdom,GB,England,ENG,L74,85 Sugar Street
United Kingdom,GB,England,ENG,M34,1586 Hollow Ridge Parkway
United Kingdom,GB,England,ENG,LN6,7416 Monica Lane
United Kingdom,GB,England,ENG,CH48,6958 Delladonna Way
United Kingdom,GB,England,ENG,NE46,45379 Ramsey Street
United Kingdom,GB,England,ENG,TF6,2 South Road
United Kingdom,GB,England,ENG,NG22,87 Coleman Street
United Kingdom,GB,England,ENG,SG4,370 Almo Drive
United Kingdom,GB,England,ENG,CT15,16129 Sage Lane
United Kingdom,GB,Northern Ireland,NIR,BT66,074 Kim Plaza
United Kingdom,GB,Scotland,SCT,EH9,70620 Oxford Drive
United Kingdom,GB,England,ENG,BS41,284 Elmside Way
United Kingdom,GB,England,ENG,RG20,0015 Village Green Avenue
United Kingdom,GB,England,ENG,S33,0 Buena Vista Junction
United Kingdom,GB,England,ENG,WC1B,39580 Westport Parkway
United Kingdom,GB,Northern Ireland,NIR,BT2,0 Hoard Pass
United Kingdom,GB,England,ENG,L33,3 Annamark Avenue
United Kingdom,GB,Northern Ireland,NIR,BT2,8 Sutherland Point
United Kingdom,GB,England,ENG,BS41,9218 Marquette Court
United Kingdom,GB,Scotland,SCT,AB39,3052 Amoth Street
United Kingdom,GB,England,ENG,L74,045 Dorton Crossing
United Kingdom,GB,England,ENG,LE14,05 Petterle Pass
United Kingdom,GB,England,ENG,L74,05 1st Place
United Kingdom,GB,England,ENG,BS37,8089 Rowland Circle
United Kingdom,GB,England,ENG,SW1E,6759 Lillian Road
United Kingdom,GB,England,ENG,BS41,98 Nancy Parkway
United Kingdom,GB,Scotland,SCT,G4,0644 Parkside Plaza
United Kingdom,GB,England,ENG,W1F,000 Johnson Avenue
United Kingdom,GB,England,ENG,NE46,02647 Briar Crest Alley
United Kingdom,GB,England,ENG,BS41,1 Straubel Junction
United Kingdom,GB,Scotland,SCT,PH43,6 Morning Way
United Kingdom,GB,England,ENG,L74,4 Crest Line Road
United Kingdom,GB,England,ENG,BS41,24 Forest Dale Drive
United Kingdom,GB,England,ENG,GL54,61768 Sommers Trail
United Kingdom,GB,England,ENG,LN6,2234 Loeprich Court
United Kingdom,GB,England,ENG,DL10,8796 Lakewood Gardens Trail
United Kingdom,GB,England,ENG,OX12,628 Green Ridge Plaza
United Kingdom,GB,England,ENG,S33,078 Di Loreto Way
United Kingdom,GB,England,ENG,DN21,38 Crownhardt Plaza
United Kingdom,GB,England,ENG,NG34,2331 East Road
United Kingdom,GB,England,ENG,ST20,79297 Dakota Parkway
United Kingdom,GB,Scotland,SCT,KW10,76051 Lighthouse Bay Court
United Kingdom,GB,Scotland,SCT,AB56,713 Brickson Park Point
United Kingdom,GB,England,ENG,M34,3 Heffernan Court
United Kingdom,GB,England,ENG,L33,12547 Russell Drive
United Kingdom,GB,England,ENG,BD7,98 Fieldstone Circle
United Kingdom,GB,Scotland,SCT,EH9,02 Kinsman Alley
United Kingdom,GB,England,ENG,PR1,02 Dottie Avenue
United Kingdom,GB,England,ENG,CT16,1179 Thackeray Way
United Kingdom,GB,England,ENG,LE15,107 Sullivan Way
United Kingdom,GB,England,ENG,NN11,33179 Huxley Plaza
United Kingdom,GB,Scotland,SCT,EH52,2249 Grover Circle
United Kingdom,GB,England,ENG,RH5,58279 Bunting Trail
United Kingdom,GB,England,ENG,CT16,149 Vidon Trail
United Kingdom,GB,England,ENG,DL8,25 Monica Pass
United Kingdom,GB,Northern Ireland,NIR,BT2,3227 Weeping Birch Parkway
United Kingdom,GB,England,ENG,DL8,4842 High Crossing Crossing
United Kingdom,GB,England,ENG,CT15,187 Golf View Crossing
United Kingdom,GB,England,ENG,RG20,3656 Northport Terrace
United Kingdom,GB,England,ENG,RG20,033 7th Point
United Kingdom,GB,Scotland,SCT,EH52,8 Barnett Court
United Kingdom,GB,England,ENG,NE46,2177 Monument Trail
United Kingdom,GB,England,ENG,TF6,54790 Buhler Center
United Kingdom,GB,England,ENG,NG22,6 Pennsylvania Road
United Kingdom,GB,England,ENG,BS37,8163 Larry Trail
United Kingdom,GB,England,ENG,GU32,936 Nobel Street
United Kingdom,GB,Northern Ireland,NIR,BT2,0331 Oak Valley Street
United Kingdom,GB,England,ENG,NN4,7078 Transport Plaza
United Kingdom,GB,Scotland,SCT,AB39,78 Ilene Street
United Kingdom,GB,England,ENG,BH21,44 Crowley Drive
United Kingdom,GB,Scotland,SCT,EH52,53 Miller Avenue
United Kingdom,GB,Scotland,SCT,EH52,8482 Lighthouse Bay Road
United Kingdom,GB,England,ENG,W1F,5674 Stang Circle
United Kingdom,GB,England,ENG,OX12,88 Hovde Parkway
United Kingdom,GB,Northern Ireland,NIR,BT66,67 Corscot Avenue
United Kingdom,GB,England,ENG,M34,64162 Independence Lane
United Kingdom,GB,England,ENG,BD7,0 American Drive
United Kingdom,GB,England,ENG,LS6,53894 Washington Way
United Kingdom,GB,England,ENG,BS37,81 Marquette Circle
United Kingdom,GB,Wales,WLS,SY4,975 Karstens Center
United Kingdom,GB,England,ENG,NN4,986 Buena Vista Point
United Kingdom,GB,England,ENG,BD23,05 Orin Place
United Kingdom,GB,England,ENG,LS9,7766 Toban Trail
United Kingdom,GB,England,ENG,OX12,294 Schiller Place
United Kingdom,GB,England,ENG,SG4,77 Basil Court
United Kingdom,GB,England,ENG,SW1E,984 Buena Vista Avenue
United Kingdom,GB,England,ENG,NR29,576 Oak Parkway
United Kingdom,GB,England,ENG,DT10,3 Badeau Hill
United Kingdom,GB,England,ENG,CV35,43 Forest Way
United Kingdom,GB,Scotland,SCT,EH52,8 Cordelia Court
United Kingdom,GB,England,ENG,CH48,6714 Kingsford Circle
United Kingdom,GB,England,ENG,PR1,8907 Montana Circle
United Kingdom,GB,England,ENG,NR29,86553 Talisman Crossing
United Kingdom,GB,England,ENG,LN6,836 Northfield Point
United Kingdom,GB,England,ENG,CT15,51 Hollow Ridge Street
United Kingdom,GB,England,ENG,SW1E,6 Riverside Drive
United Kingdom,GB,England,ENG,LE15,66469 Bashford Junction
United Kingdom,GB,England,ENG,SG4,341 Trailsway Road
United Kingdom,GB,England,ENG,NN4,701 Springs Terrace
United Kingdom,GB,England,ENG,RG20,25 Coolidge Court
United Kingdom,GB,England,ENG,LS9,25 Briar Crest Drive
United Kingdom,GB,England,ENG,N3,7406 Moland Lane
United Kingdom,GB,England,ENG,BD23,3074 Nelson Crossing
United Kingdom,GB,England,ENG,CB4,4 Lakeland Way
United Kingdom,GB,England,ENG,NG22,457 Stang Crossing
United Kingdom,GB,England,ENG,S1,92 Graceland Pass
United Kingdom,GB,England,ENG,BH21,44 Monterey Drive
United Kingdom,GB,Scotland,SCT,AB56,156 Bartelt Circle
United Kingdom,GB,England,ENG,GL54,0054 Arkansas Court
United Kingdom,GB,England,ENG,BS14,38536 Forest Dale Drive
United Kingdom,GB,England,ENG,W1F,651 Ilene Park
United Kingdom,GB,England,ENG,M14,0722 Manitowish Alley
United Kingdom,GB,England,ENG,NN11,1718 Buell Way
United Kingdom,GB,England,ENG,B40,50899 Bashford Drive
United Kingdom,GB,England,ENG,M34,6 Sutteridge Drive
United Kingdom,GB,England,ENG,CB4,30 Acker Park
United Kingdom,GB,Scotland,SCT,AB55,33355 Eastwood Center
United Kingdom,GB,England,ENG,LE15,337 Farwell Road
United Kingdom,GB,England,ENG,BD23,89 Gateway Drive
United Kingdom,GB,Scotland,SCT,IV1,14 Warner Pass
United Kingdom,GB,England,ENG,TF6,409 Barby Terrace
United Kingdom,GB,Scotland,SCT,AB55,252 Sugar Place
United Kingdom,GB,England,ENG,DL8,315 Summit Point
United Kingdom,GB,Scotland,SCT,PH43,8 Bashford Drive
United Kingdom,GB,England,ENG,BD23,012 Glacier Hill Parkway
United Kingdom,GB,England,ENG,RG20,73019 Cody Junction
United Kingdom,GB,Scotland,SCT,AB56,025 Emmet Alley
United Kingdom,GB,England,ENG,LN6,662 Everett Plaza
United Kingdom,GB,England,ENG,GU32,47 Utah Trail
United Kingdom,GB,England,ENG,CH48,6 South Circle
United Kingdom,GB,England,ENG,WF9,8 Springview Junction
United Kingdom,GB,England,ENG,OX7,4 Swallow Plaza
United Kingdom,GB,England,ENG,WC1B,3 Jackson Pass
United Kingdom,GB,England,ENG,SW19,96089 John Wall Way
United Kingdom,GB,England,ENG,NR34,4510 Sommers Court
United Kingdom,GB,England,ENG,DT10,13 Truax Avenue
United Kingdom,GB,England,ENG,M14,47839 Sachtjen Way
United Kingdom,GB,England,ENG,LE14,12 Twin Pines Park
United Kingdom,GB,Scotland,SCT,AB39,38 American Crossing
United Kingdom,GB,England,ENG,BH21,91 Sheridan Place
United Kingdom,GB,England,ENG,RH5,4780 Straubel Plaza
United Kingdom,GB,England,ENG,NN11,9233 Moulton Street
United Kingdom,GB,England,ENG,BD23,4 Nelson Drive
United Kingdom,GB,England,ENG,DN21,5183 Pleasure Way
United Kingdom,GB,England,ENG,CB4,27485 Coleman Street
United Kingdom,GB,England,ENG,BH21,0925 Troy Crossing
United Kingdom,GB,England,ENG,CT15,439 Morningstar Circle
United Kingdom,GB,England,ENG,BS41,05608 Blackbird Alley
United Kingdom,GB,England,ENG,W1F,7891 Mendota Road
United Kingdom,GB,England,ENG,BS14,578 School Avenue
United Kingdom,GB,Scotland,SCT,KW10,72737 Scott Hill
United Kingdom,GB,England,ENG,DT10,14 Transport Court
United Kingdom,GB,England,ENG,WF9,09 Muir Place
United Kingdom,GB,England,ENG,ST20,70642 Hoard Crossing
United Kingdom,GB,England,ENG,WC2H,74 Walton Hill
United Kingdom,GB,England,ENG,DN21,04238 Thompson Terrace
United Kingdom,GB,England,ENG,S8,90 Evergreen Lane
United Kingdom,GB,England,ENG,LE14,8 Continental Crossing
United Kingdom,GB,England,ENG,TF6,59981 Bay Parkway
United Kingdom,GB,England,ENG,OX7,1 Meadow Valley Park
United Kingdom,GB,England,ENG,PR1,5 Mandrake Place
United Kingdom,GB,England,ENG,CT16,47 Graedel Place
United Kingdom,GB,Scotland,SCT,EH52,318 2nd Court
United Kingdom,GB,Scotland,SCT,PH43,21125 Dryden Avenue
United Kingdom,GB,England,ENG,BS41,69 Hallows Point
United Kingdom,GB,England,ENG,CT16,8599 Di Loreto Way
United Kingdom,GB,England,ENG,LS6,79215 Stuart Place
United Kingdom,GB,England,ENG,DN22,86843 Birchwood Road
United Kingdom,GB,England,ENG,BH21,89 Katie Hill
United Kingdom,GB,England,ENG,NN4,52 Sauthoff Way
United Kingdom,GB,England,ENG,BH21,81278 Old Gate Parkway
United Kingdom,GB,England,ENG,LS9,0566 Orin Lane
United Kingdom,GB,Scotland,SCT,KW10,11 Esch Point
United Kingdom,GB,Scotland,SCT,EH9,65017 Stang Pass
United Kingdom,GB,England,ENG,BD7,91 Nevada Alley
United Kingdom,GB,England,ENG,LS6,807 Surrey Trail
United Kingdom,GB,England,ENG,CV35,7842 Colorado Terrace
United Kingdom,GB,England,ENG,DL10,4426 Maple Wood Circle
United Kingdom,GB,England,ENG,OX7,690 American Plaza
United Kingdom,GB,England,ENG,SN1,8 Oriole Hill
United Kingdom,GB,England,ENG,NG22,65 Memorial Plaza
United Kingdom,GB,England,ENG,NG22,2225 Rutledge Circle
United Kingdom,GB,England,ENG,OX7,6 Sauthoff Lane
United Kingdom,GB,England,ENG,BS37,69007 Vidon Junction
United Kingdom,GB,England,ENG,NN4,22386 Hazelcrest Lane
United Kingdom,GB,Northern Ireland,NIR,BT2,79640 Heffernan Terrace
United Kingdom,GB,England,ENG,B40,480 Homewood Hill
United Kingdom,GB,Scotland,SCT,AB55,51376 Fieldstone Avenue
United Kingdom,GB,England,ENG,BD23,3393 Dapin Avenue
United Kingdom,GB,Scotland,SCT,G4,55035 Larry Junction
United Kingdom,GB,Scotland,SCT,EH9,44 Red Cloud Place
United Kingdom,GB,Scotland,SCT,EH52,48 Banding Way
United Kingdom,GB,England,ENG,N3,849 Center Road
United Kingdom,GB,England,ENG,NN4,29905 Farragut Street
United Kingdom,GB,England,ENG,BH21,083 Ridge Oak Avenue
United Kingdom,GB,Scotland,SCT,EH9,15195 Pierstorff Lane
United Kingdom,GB,England,ENG,LE14,33 Kinsman Avenue
United Kingdom,GB,England,ENG,LE15,91028 5th Road
United Kingdom,GB,England,ENG,B12,44115 Morningstar Circle
United Kingdom,GB,England,ENG,DN21,6 Thompson Center
United Kingdom,GB,Scotland,SCT,AB39,39 Johnson Crossing
United Kingdom,GB,England,ENG,NN4,96 Heath Plaza
United Kingdom,GB,England,ENG,LE16,03 Erie Road
United Kingdom,GB,England,ENG,NR34,55218 Anderson Lane
United Kingdom,GB,England,ENG,EC1V,1 Becker Parkway
United Kingdom,GB,Scotland,SCT,KW10,23263 Helena Avenue
United Kingdom,GB,England,ENG,LE15,30 Bonner Terrace
United Kingdom,GB,England,ENG,DT10,2010 Vahlen Park
United Kingdom,GB,England,ENG,NG22,11 Sauthoff Way
United Kingdom,GB,England,ENG,WF9,01796 Kensington Trail
United Kingdom,GB,England,ENG,DN22,8 Columbus Center
United Kingdom,GB,Scotland,SCT,AB55,6675 Morrow Trail
United Kingdom,GB,England,ENG,NN11,236 Duke Plaza
United Kingdom,GB,England,ENG,L33,03 Browning Park
United Kingdom,GB,England,ENG,CV35,681 Jay Street
United Kingdom,GB,England,ENG,NR34,03483 Vernon Pass
United Kingdom,GB,England,ENG,M14,6463 West Trail
United Kingdom,GB,England,ENG,CV35,8 Old Gate Pass
United Kingdom,GB,Scotland,SCT,EH9,6 Beilfuss Alley
United Kingdom,GB,England,ENG,TF6,411 Parkside Junction
United Kingdom,GB,England,ENG,NE46,00 Lakeland Center
United Kingdom,GB,Scotland,SCT,AB55,4 Dahle Junction
United Kingdom,GB,England,ENG,SW1E,1734 Golf Course Hill
United Kingdom,GB,England,ENG,PR1,48 Evergreen Hill
United Kingdom,GB,England,ENG,S8,41961 Mesta Junction
United Kingdom,GB,England,ENG,DN22,6098 Drewry Junction
United Kingdom,GB,England,ENG,NG22,57973 Jackson Parkway
United Kingdom,GB,England,ENG,LS6,49466 Sloan Road
United Kingdom,GB,England,ENG,S8,1 Fieldstone Court
United Kingdom,GB,Northern Ireland,NIR,BT66,27671 Kensington Lane
United Kingdom,GB,England,ENG,EC1V,15530 Trailsway Place
United Kingdom,GB,England,ENG,CH48,67 Northwestern Street
United Kingdom,GB,England,ENG,CB4,5381 Oxford Plaza
United Kingdom,GB,England,ENG,NN11,79 Hallows Terrace
United Kingdom,GB,Scotland,SCT,EH9,5 Clemons Avenue
United Kingdom,GB,England,ENG,S33,279 Orin Hill
United Kingdom,GB,England,ENG,LN6,98 Clove Lane
United Kingdom,GB,England,ENG,B12,42066 Corscot Court
United Kingdom,GB,England,ENG,OX12,05963 Weeping Birch Circle
United Kingdom,GB,England,ENG,CH48,963 Carey Street
United Kingdom,GB,England,ENG,WC1B,7 Kim Pass
United Kingdom,GB,England,ENG,BD7,60 La Follette Plaza
United Kingdom,GB,England,ENG,SN13,12 Redwing Circle
United Kingdom,GB,England,ENG,N3,6980 Grasskamp Crossing
United Kingdom,GB,England,ENG,GU32,92157 Crest Line Drive
United Kingdom,GB,England,ENG,CT16,1211 Crowley Drive
United Kingdom,GB,England,ENG,GU32,85984 Stoughton Way
United Kingdom,GB,England,ENG,B12,18884 Erie Terrace
United Kingdom,GB,England,ENG,NG22,2 Bunting Way
United Kingdom,GB,England,ENG,OX7,42142 Dennis Way
United Kingdom,GB,England,ENG,S1,9720 Bay Park
United Kingdom,GB,England,ENG,NN4,54 Loeprich Trail
United Kingdom,GB,England,ENG,CT16,2 Norway Maple Parkway
United Kingdom,GB,England,ENG,EC1V,03 Onsgard Drive
United Kingdom,GB,England,ENG,BD23,446 Transport Avenue
United Kingdom,GB,England,ENG,S1,01 Bellgrove Pass
United Kingdom,GB,England,ENG,LN6,716 Pleasure Parkway
United Kingdom,GB,England,ENG,BD7,8 Gulseth Circle
United Kingdom,GB,England,ENG,WF9,092 International Court
United Kingdom,GB,England,ENG,S8,52 Sommers Junction
United Kingdom,GB,England,ENG,CV35,3789 Stang Park
United Kingdom,GB,England,ENG,SW19,201 Glacier Hill Junction
United Kingdom,GB,England,ENG,N3,6395 Warrior Point
United Kingdom,GB,England,ENG,NG22,70842 Fieldstone Way
United Kingdom,GB,England,ENG,CV35,312 Muir Court
United Kingdom,GB,England,ENG,OX12,2725 Straubel Pass
United Kingdom,GB,England,ENG,DN36,177 Barnett Parkway
United Kingdom,GB,England,ENG,W1F,2814 South Center
United Kingdom,GB,England,ENG,NR29,07 Petterle Place
United Kingdom,GB,England,ENG,CB4,6669 American Ash Hill
United Kingdom,GB,Northern Ireland,NIR,BT2,0710 Acker Pass
United Kingdom,GB,Northern Ireland,NIR,BT2,53 Clyde Gallagher Court
United Kingdom,GB,Scotland,SCT,PH43,84628 Dawn Alley
United Kingdom,GB,England,ENG,L74,5 Farwell Park
United Kingdom,GB,England,ENG,WC1B,1675 Bayside Avenue
United Kingdom,GB,England,ENG,OX12,99 Ryan Circle
United Kingdom,GB,England,ENG,SN1,1760 Oakridge Road
United Kingdom,GB,England,ENG,W1F,2 Novick Lane
United Kingdom,GB,England,ENG,CB4,194 Thackeray Park
United Kingdom,GB,England,ENG,PR1,5321 Thackeray Trail
United Kingdom,GB,England,ENG,CT15,3670 Atwood Crossing
United Kingdom,GB,England,ENG,BS14,7 Golf Course Crossing
United Kingdom,GB,England,ENG,NN4,70 Sauthoff Circle
United Kingdom,GB,England,ENG,B40,50475 Sachs Avenue
United Kingdom,GB,Scotland,SCT,AB39,547 Westerfield Trail
United Kingdom,GB,England,ENG,EC3M,2559 Westridge Road
United Kingdom,GB,Scotland,SCT,EH9,5 Vidon Alley
United Kingdom,GB,England,ENG,LS6,782 Luster Avenue
United Kingdom,GB,England,ENG,NG22,30 Jackson Road
United Kingdom,GB,England,ENG,OX12,06870 Schiller Plaza
